{
  "type": "FeatureCollection",
  "features": [
    {
      "type": "Feature",
      "properties": {
        "norad_id": 22675,
        "name": "COSMOS 2251",
        "group": "cosmos-2251-debris",
        "lat": 10.510637389888478,
        "lon": 105.22351512221516,
        "alt_km": 798.9291076300142,
        "timestamp": "2025-12-27T20:30:59.672333+00:00",
        "meta_object_name": "COSMOS 2251",
        "meta_object_id": "1993-036A",
        "meta_epoch": "2025-12-27T06:19:46.520832",
        "meta_mean_motion": 14.33209291,
        "meta_eccentricity": 0.0024555,
        "meta_inclination": 74.04,
        "meta_ra_of_asc_node": 289.3466,
        "meta_arg_of_pericenter": 7.6684,
        "meta_mean_anomaly": 352.4838,
        "meta_ephemeris_type": 0,
        "meta_classification_type": "U",
        "meta_norad_cat_id": 22675,
        "meta_element_set_no": 999,
        "meta_rev_at_epoch": 69981,
        "meta_bstar": 6.3396e-05,
        "meta_mean_motion_dot": 1.49e-06,
        "meta_mean_motion_ddot": 0,
        "tle_line1": "1 22675U 93036A   25361.26373288  .00000149  00000+0  63396-4 0  9993",
        "tle_line2": "2 22675  74.0400 289.3466 0024555   7.6684 352.4838 14.33209291699819"
      },
      "geometry": {
        "type": "Point",
        "coordinates": [
          105.22351512221516,
          10.510637389888478
        ]
      }
    },
    {
      "type": "Feature",
      "properties": {
        "norad_id": 33757,
        "name": "COSMOS 2251 DEB",
        "group": "cosmos-2251-debris",
        "lat": 6.017440399537047,
        "lon": 114.28763509715967,
        "alt_km": 792.6218510923109,
        "timestamp": "2025-12-27T20:30:59.672355+00:00",
        "meta_object_name": "COSMOS 2251 DEB",
        "meta_object_id": "1993-036E",
        "meta_epoch": "2025-12-27T07:03:15.454368",
        "meta_mean_motion": 14.32584823,
        "meta_eccentricity": 0.0015702,
        "meta_inclination": 74.0376,
        "meta_ra_of_asc_node": 297.0401,
        "meta_arg_of_pericenter": 308.2672,
        "meta_mean_anomaly": 213.7707,
        "meta_ephemeris_type": 0,
        "meta_classification_type": "U",
        "meta_norad_cat_id": 33757,
        "meta_element_set_no": 999,
        "meta_rev_at_epoch": 88204,
        "meta_bstar": 5.5084e-05,
        "meta_mean_motion_dot": 1.24e-06,
        "meta_mean_motion_ddot": 0,
        "tle_line1": "1 33757U 93036E   25361.29392887  .00000124  00000+0  55084-4 0  9993",
        "tle_line2": "2 33757  74.0376 297.0401 0015702 308.2672 213.7707 14.32584823882049"
      },
      "geometry": {
        "type": "Point",
        "coordinates": [
          114.28763509715967,
          6.017440399537047
        ]
      }
    },
    {
      "type": "Feature",
      "properties": {
        "norad_id": 33758,
        "name": "COSMOS 2251 DEB",
        "group": "cosmos-2251-debris",
        "lat": 68.27034650069153,
        "lon": -127.49736362799788,
        "alt_km": 725.2520728030267,
        "timestamp": "2025-12-27T20:30:59.672370+00:00",
        "meta_object_name": "COSMOS 2251 DEB",
        "meta_object_id": "1993-036F",
        "meta_epoch": "2025-12-27T12:02:01.377312",
        "meta_mean_motion": 14.51682856,
        "meta_eccentricity": 0.001706,
        "meta_inclination": 74.0271,
        "meta_ra_of_asc_node": 187.2241,
        "meta_arg_of_pericenter": 252.935,
        "meta_mean_anomaly": 135.7719,
        "meta_ephemeris_type": 0,
        "meta_classification_type": "U",
        "meta_norad_cat_id": 33758,
        "meta_element_set_no": 999,
        "meta_rev_at_epoch": 88519,
        "meta_bstar": 0.00092421,
        "meta_mean_motion_dot": 3.689e-05,
        "meta_mean_motion_ddot": 0,
        "tle_line1": "1 33758U 93036F   25361.50140483  .00003689  00000+0  92421-3 0  9995",
        "tle_line2": "2 33758  74.0271 187.2241 0017060 252.9350 135.7719 14.51682856885194"
      },
      "geometry": {
        "type": "Point",
        "coordinates": [
          -127.49736362799788,
          68.27034650069153
        ]
      }
    },
    {
      "type": "Feature",
      "properties": {
        "norad_id": 33760,
        "name": "COSMOS 2251 DEB",
        "group": "cosmos-2251-debris",
        "lat": -46.657697068517045,
        "lon": 91.37905070062669,
        "alt_km": 786.4135316414759,
        "timestamp": "2025-12-27T20:30:59.672381+00:00",
        "meta_object_name": "COSMOS 2251 DEB",
        "meta_object_id": "1993-036H",
        "meta_epoch": "2025-12-27T11:53:43.383264",
        "meta_mean_motion": 14.35682456,
        "meta_eccentricity": 0.0020509,
        "meta_inclination": 74.0316,
        "meta_ra_of_asc_node": 254.3761,
        "meta_arg_of_pericenter": 349.2665,
        "meta_mean_anomaly": 184.1652,
        "meta_ephemeris_type": 0,
        "meta_classification_type": "U",
        "meta_norad_cat_id": 33760,
        "meta_element_set_no": 999,
        "meta_rev_at_epoch": 88336,
        "meta_bstar": 0.00011571,
        "meta_mean_motion_dot": 3.09e-06,
        "meta_mean_motion_ddot": 0,
        "tle_line1": "1 33760U 93036H   25361.49564101  .00000309  00000+0  11571-3 0  9996",
        "tle_line2": "2 33760  74.0316 254.3761 0020509 349.2665 184.1652 14.35682456883360"
      },
      "geometry": {
        "type": "Point",
        "coordinates": [
          91.37905070062669,
          -46.657697068517045
        ]
      }
    },
    {
      "type": "Feature",
      "properties": {
        "norad_id": 33761,
        "name": "COSMOS 2251 DEB",
        "group": "cosmos-2251-debris",
        "lat": 7.269363757692933,
        "lon": 42.026443186895634,
        "alt_km": 762.2551418648864,
        "timestamp": "2025-12-27T20:30:59.672392+00:00",
        "meta_object_name": "COSMOS 2251 DEB",
        "meta_object_id": "1993-036J",
        "meta_epoch": "2025-12-27T01:59:50.932032",
        "meta_mean_motion": 14.42583878,
        "meta_eccentricity": 0.00233609,
        "meta_inclination": 74.0346,
        "meta_ra_of_asc_node": 225.5505,
        "meta_arg_of_pericenter": 303.8689,
        "meta_mean_anomaly": 182.9767,
        "meta_ephemeris_type": 0,
        "meta_classification_type": "U",
        "meta_norad_cat_id": 33761,
        "meta_element_set_no": 999,
        "meta_rev_at_epoch": 88441,
        "meta_bstar": 0.00042063651,
        "meta_mean_motion_dot": 1.374e-05,
        "meta_mean_motion_ddot": 0,
        "tle_line1": "1 33761U 93036J   25361.08322838  .00001374  00000+0  42064-3 0  9995",
        "tle_line2": "2 33761  74.0346 225.5505 0023360 303.8689 182.9767 14.42583878884416"
      },
      "geometry": {
        "type": "Point",
        "coordinates": [
          42.026443186895634,
          7.269363757692933
        ]
      }
    },
    {
      "type": "Feature",
      "properties": {
        "norad_id": 33762,
        "name": "COSMOS 2251 DEB",
        "group": "cosmos-2251-debris",
        "lat": 54.58935311610915,
        "lon": -53.873798179488446,
        "alt_km": 771.5374184675393,
        "timestamp": "2025-12-27T20:30:59.672403+00:00",
        "meta_object_name": "COSMOS 2251 DEB",
        "meta_object_id": "1993-036K",
        "meta_epoch": "2025-12-27T12:42:02.181024",
        "meta_mean_motion": 14.33668433,
        "meta_eccentricity": 0.0015589,
        "meta_inclination": 74.0421,
        "meta_ra_of_asc_node": 282.9885,
        "meta_arg_of_pericenter": 341.177,
        "meta_mean_anomaly": 196.5183,
        "meta_ephemeris_type": 0,
        "meta_classification_type": "U",
        "meta_norad_cat_id": 33762,
        "meta_element_set_no": 999,
        "meta_rev_at_epoch": 88259,
        "meta_bstar": 6.0732e-05,
        "meta_mean_motion_dot": 1.43e-06,
        "meta_mean_motion_ddot": 0,
        "tle_line1": "1 33762U 93036K   25361.52919191  .00000143  00000+0  60732-4 0  9995",
        "tle_line2": "2 33762  74.0421 282.9885 0015589 341.1770 196.5183 14.33668433882590"
      },
      "geometry": {
        "type": "Point",
        "coordinates": [
          -53.873798179488446,
          54.58935311610915
        ]
      }
    },
    {
      "type": "Feature",
      "properties": {
        "norad_id": 33764,
        "name": "COSMOS 2251 DEB",
        "group": "cosmos-2251-debris",
        "lat": 22.912294511805264,
        "lon": 57.79615574765046,
        "alt_km": 748.8663355697145,
        "timestamp": "2025-12-27T20:30:59.672414+00:00",
        "meta_object_name": "COSMOS 2251 DEB",
        "meta_object_id": "1993-036M",
        "meta_epoch": "2025-12-27T01:56:49.225920",
        "meta_mean_motion": 14.39538909,
        "meta_eccentricity": 0.0023287,
        "meta_inclination": 74.0327,
        "meta_ra_of_asc_node": 246.1752,
        "meta_arg_of_pericenter": 209.065,
        "meta_mean_anomaly": 259.026,
        "meta_ephemeris_type": 0,
        "meta_classification_type": "U",
        "meta_norad_cat_id": 33764,
        "meta_element_set_no": 999,
        "meta_rev_at_epoch": 88363,
        "meta_bstar": 0.00032189369,
        "meta_mean_motion_dot": 9.81e-06,
        "meta_mean_motion_ddot": 0,
        "tle_line1": "1 33764U 93036M   25361.08112530  .00000981  00000+0  32189-3 0  9994",
        "tle_line2": "2 33764  74.0327 246.1752 0023287 209.0650 259.0260 14.39538909883632"
      },
      "geometry": {
        "type": "Point",
        "coordinates": [
          57.79615574765046,
          22.912294511805264
        ]
      }
    }
  ]
}